BEIDOU 3 (C01)          
1 36287U 10001A   22277.65372501 -.00000293  00000+0  00000+0 0  9990
2 36287   1.6987  47.8570 0000572   2.1013 339.1807  1.00272528 46605
BEIDOU 5 (C06)          
1 36828U 10036A   22277.26334306 -.00000156  00000+0  00000+0 0  9995
2 36828  54.1979 175.2353 0030264 187.1705 213.1305  1.00267390 44678
BEIDOU 6 (C04)          
1 37210U 10057A   22276.87682968 -.00000124  00000+0  00000+0 0  9995
2 37210   0.7505  39.1331 0007169 149.3197 299.7057  1.00270198 43722
BEIDOU 7 (C07)          
1 37256U 10068A   22277.65114362 -.00000172  00000+0  00000+0 0  9995
2 37256  50.0199 288.3376 0024002 205.3984 222.1680  1.00272663 43246
BEIDOU 8 (C08)          
1 37384U 11013A   22276.85755060 -.00000168  00000+0  00000+0 0  9990
2 37384  60.4511  53.1888 0024437 178.3926 198.0696  1.00278996 42112
BEIDOU 9 (C09)          
1 37763U 11038A   22277.67777616 -.00000107  00000+0  00000+0 0  9993
2 37763  54.4791 177.7353 0098983 227.7310 305.5545  1.00258753 41092
BEIDOU 10 (C10)         
1 37948U 11073A   22277.34701197 -.00000125  00000+0  00000+0 0  9992
2 37948  50.1376 287.9894 0086760 220.0590  85.7970  1.00269462 39847
BEIDOU 11 (C05)         
1 38091U 12008A   22277.64450311  .00000044  00000+0  00000+0 0  9992
2 38091   1.8051  69.8982 0010010 340.1951 253.9284  1.00271114 38927
BEIDOU 12 (C11)         
1 38250U 12018A   22276.07471271 -.00000088  00000+0  00000+0 0  9993
2 38250  56.6602 350.0065 0023518 250.5978 115.4036  1.86234434 71091
BEIDOU 13 (C12)         
1 38251U 12018B   22277.58284713 -.00000091  00000+0  00000+0 0  9998
2 38251  56.5756 349.2729 0014244 250.3273  90.9669  1.86234243 71110
BEIDOU 15 (C14)         
1 38775U 12050B   22275.65197045  .00000042  00000+0  00000+0 0  9997
2 38775  55.4620 108.0772 0011826 333.9097 348.6795  1.86231476 68454
BEIDOU 16 (C02)         
1 38953U 12059A   22277.66597850 -.00000190  00000+0  00000+0 0  9990
2 38953   1.1889  81.2818 0023912 295.7879 320.1334  1.00269133 36492
BEIDOU 17 (C31)         
1 40549U 15019A   22277.61598300 -.00000155  00000+0  00000+0 0  9990
2 40549  51.6974 311.4871 0038579 198.3671 181.0376  1.00273765 27532
BEIDOU 18 (C57)         
1 40748U 15037A   22277.28633918 -.00000090  00000+0  00000+0 0  9997
2 40748  55.8251 348.0839 0000908  19.1356  32.6675  1.86233523 48945
BEIDOU 19 (C58)         
1 40749U 15037B   22277.47489147 -.00000090  00000+0  00000+0 0  9992
2 40749  55.8280 348.0671 0003296 296.0017  16.3987  1.86233147 48931
BEIDOU 20 (C18)         
1 40938U 15053A   22277.43169823 -.00000107  00000+0  00000+0 0  9991
2 40938  51.3353 274.6169 0045897 200.4572 149.7192  1.00267522 25795
BEIDOU IGSO-6 (C13)     
1 41434U 16021A   22277.34304090 -.00000137  00000+0  00000+0 0  9999
2 41434  58.2615  51.7097 0045619 215.1432 323.9840  1.00262162 23922
BEIDOU-2 G7 (C03)       
1 41586U 16037A   22277.62878683 -.00000367  00000+0  00000+0 0  9994
2 41586   1.6140  68.2251 0007961 355.0324 286.9884  1.00271317 23234
BEIDOU-3 M1 (C19)       
1 43001U 17069A   22277.62572638  .00000054  00000+0  00000+0 0  9997
2 43001  55.6172 108.0252 0007534 295.3311  66.9312  1.86231783 33436
BEIDOU-3 M2 (C20)       
1 43002U 17069B   22277.31166536  .00000052  00000+0  00000+0 0  9998
2 43002  55.6159 108.0717 0006145 327.2192 227.3443  1.86231337 33418
BEIDOU-3 M3 (C27)       
1 43107U 18003A   22276.84762919 -.00000090  00000+0  00000+0 0  9990
2 43107  55.2772 348.9679 0003760  70.5025 339.2421  1.86232594 32173
BEIDOU-3 M4 (C28)       
1 43108U 18003B   22276.25701547 -.00000089  00000+0  00000+0 0  9994
2 43108  55.2707 348.9768 0003875 239.0318 178.0145  1.86231052 32164
BEIDOU-3 M5 (C21)       
1 43207U 18018A   22277.15330426  .00000051  00000+0  00000+0 0  9992
2 43207  55.5747 108.1520 0004312   8.6829 351.3888  1.86231644 31567
BEIDOU-3 M6 (C22)       
1 43208U 18018B   22277.21999320  .00000051  00000+0  00000+0 0  9994
2 43208  55.5749 108.1541 0005477 311.4339  48.5869  1.86231689 31560
BEIDOU-3 M7 (C29)       
1 43245U 18029A   22276.16026477 -.00000086  00000+0  00000+0 0  9993
2 43245  55.1870 346.7525 0001060 200.2781  19.1353  1.86232800 30695
BEIDOU-3 M8 (C30)       
1 43246U 18029B   22276.11586666 -.00000086  00000+0  10000-3 0  9995
2 43246  55.1833 346.7836 0002893 353.4066 242.8607  1.86232986 30683
BEIDOU IGSO-7 (C16)     
1 43539U 18057A   22277.63076993 -.00000165  00000+0  00000+0 0  9999
2 43539  55.0911 174.7664 0051979 227.6411 312.4790  1.00277412 15608
BEIDOU-3 M9 (C23)       
1 43581U 18062A   22277.33660751 -.00000001  00000+0  00000+0 0  9999
2 43581  54.2499 228.3581 0005507 280.8103 265.2082  1.86232012 28453
BEIDOU-3 M10 (C24)      
1 43582U 18062B   22277.10769691  .00000003  00000+0  00000+0 0  9999
2 43582  54.2499 228.3548 0005289 345.8768 138.5835  1.86232478 28457
BEIDOU-3 M11 (C25)      
1 43602U 18067A   22277.52538101 -.00000005  00000+0  00000+0 0  9996
2 43602  54.3327 226.9657 0007125   3.5631  82.0865  1.86231603 27953
BEIDOU-3 M12 (C26)      
1 43603U 18067B   22277.26427381 -.00000001  00000+0  00000+0 0  9991
2 43603  54.3298 226.9409 0004432 348.2810 192.6623  1.86231562 27967
BEIDOU-3 M13 (C32)      
1 43622U 18072A   22276.68938189  .00000048  00000+0  00000+0 0  9996
2 43622  55.5421 107.7189 0004436 290.6264 253.8853  1.86231787 27466
BEIDOU-3 M14 (C33)      
1 43623U 18072B   22275.76605411  .00000043  00000+0  00000+0 0  9999
2 43623  55.5432 107.7416 0002927 339.3414  36.3644  1.86231835 27458
BEIDOU-3 M15 (C34)      
1 43647U 18078A   22277.47260825 -.00000089  00000+0  10000-3 0  9993
2 43647  55.0815 346.8564 0005071   3.1287 332.4213  1.86233043 26983
BEIDOU-3 M16 (C35)      
1 43648U 18078B   22276.82665728 -.00000088  00000+0  00000+0 0  9997
2 43648  55.0775 346.8844 0002997  16.8692 153.1701  1.86232363 26990
BEIDOU-3 G1 (C59)       
1 43683U 18085A   22277.48382728 -.00000293  00000+0  00000+0 0  9991
2 43683   1.0157 149.5542 0004430  49.0101 128.7567  1.00266494 14504
BEIDOU-3 M17 (C36)      
1 43706U 18093A   22277.26050203  .00000001  00000+0  00000+0 0  9998
2 43706  54.3313 228.2543 0010298 279.8142  80.0484  1.86231738 26360
BEIDOU-3 M18 (C37)      
1 43707U 18093B   22277.39873677 -.00000002  00000+0  00000+0 0  9993
2 43707  54.3328 228.2399 0009209 300.6715 243.1973  1.86232317 26353
BEIDOU-3 IGSO-1 (C38)   
1 44204U 19023A   22276.86739383 -.00000202  00000+0  00000+0 0  9998
2 44204  56.7211  51.8105 0023811 188.8926 203.8751  1.00277163 12809
BEIDOU-2 G8             
1 44231U 19027A   22277.65709207 -.00000261  00000+0  00000+0 0  9997
2 44231   1.1199  79.2288 0006370 118.5072 196.6969  1.00270529 12514
BEIDOU-3 IGSO-2 (C39)   
1 44337U 19035A   22277.63327646 -.00000164  00000+0  00000+0 0  9996
2 44337  55.1265 170.7533 0025484 191.3152 358.9714  1.00271144 12143
BEIDOU-3 M23 (C45)      
1 44542U 19061A   22277.19678831  .00000002  00000+0  00000+0 0  9999
2 44542  54.5581 228.4199 0008894 335.4400  24.4967  1.86231428 20618
BEIDOU-3 M24 (C46)      
1 44543U 19061B   22277.44630122 -.00000002  00000+0  00000+0 0  9990
2 44543  54.5567 228.3804 0006475 318.7833 119.8935  1.86231948 20613
BEIDOU-3 IGSO-3         
1 44709U 19073A   22277.65637972 -.00000148  00000+0  10000-3 0  9996
2 44709  57.0874 295.2500 0027491 182.7509 251.7777  1.00275915 10899
BEIDOU-3 M21            
1 44793U 19078A   22277.60213767 -.00000090  00000+0  10000-3 0  9997
2 44793  54.9303 346.8602 0004981  14.0089   2.1060  1.86232445 19482
BEIDOU-3 M22            
1 44794U 19078B   22276.63783867 -.00000088  00000+0  00000+0 0  9995
2 44794  54.9043 346.8834 0002858   4.0570 357.3881  1.86232868 19469
BEIDOU-3 M19            
1 44864U 19090A   22277.18905563  .00000051  00000+0  00000+0 0  9996
2 44864  55.4779 107.9068 0014976 269.8517 295.5412  1.86232010 19057
BEIDOU-3 M20            
1 44865U 19090B   22275.64912519  .00000042  00000+0  00000+0 0  9995
2 44865  55.4781 107.9906 0013096 285.8049  56.9830  1.86231948 18996
BEIDOU-3 G2             
1 45344U 20017A   22277.55952216 -.00000155  00000+0  00000+0 0  9995
2 45344   2.0140 357.6284 0004063 159.1558 137.9190  1.00270542  9708
BEIDOU-3 G3             
1 45807U 20040A   22277.57634204 -.00000369  00000+0  00000+0 0  9998
2 45807   1.2039 307.0081 0008453 335.0755  49.2308  1.00271255  8522
